NORAD_CAT_ID,OBJECT_NAME,OBJECT_TYPE,EPOCH,MEAN_MOTION,ECCENTRICITY,INCLINATION,RA_OF_ASC_NODE,ARG_OF_PERICENTER,MEAN_ANOMALY,BSTAR,MEAN_MOTION_DOT,MEAN_MOTION_DDOT,TLE_LINE0,TLE_LINE1,TLE_LINE2,SEMIMAJOR_AXIS,PERIOD,APOGEE,PERIGEE,DECAYED
52668.0,STARLINK-4067,PAYLOAD,2023-01-18 20:16:22,15.08858362,0.0001651,53.2126,258.031,84.0555,276.0625,0.00076525,0.00011918,0.0,0 STARLINK-4067,1 52668U 22053N   23018.84470970  .00011918  00000-0  76525-3 0  9990,2 52668  53.2126 258.0310 0001651  84.0555 276.0625 15.08858362 38068,6917.8240000000005,95.436,540.831,538.547,0.0
52668.0,STARLINK-4067,PAYLOAD,2023-01-18 21:51:45,15.08857825,0.0001614,53.2131,257.7332,84.4223,275.6953,0.00068553,0.00010644,0.0,0 STARLINK-4067,1 52668U 22053N   23018.91094895  .00010644  00000-0  68553-3 0  9993,2 52668  53.2131 257.7332 0001614  84.4223 275.6953 15.08857825 38072,6917.826,95.436,540.807,538.5740000000001,0.0
52668.0,STARLINK-4067,PAYLOAD,2023-01-19 08:59:27,15.08850951,3.13e-05,53.2129,255.6528,163.7258,196.3745,1.0594e-05,-1.19e-06,0.0,0 STARLINK-4067,1 52668U 22053N   23019.37462076 -.00000119  00000-0  10594-4 0  9994,2 52668  53.2129 255.6528 0000313 163.7258 196.3745 15.08850951 38146,6917.847,95.437,539.928,539.495,0.0
52668.0,STARLINK-4067,PAYLOAD,2023-01-19 15:21:00,15.08832044,0.0001875,53.2129,254.4624,94.5976,265.5231,-0.00027705,-4.694e-05,0.0,0 STARLINK-4067,1 52668U 22053N   23019.63959240 -.00004694  00000-0 -27705-3 0  9991,2 52668  53.2129 254.4624 0001875  94.5976 265.5231 15.08832044 38188,6917.905,95.438,541.067,538.4730000000001,0.0
52668.0,STARLINK-4067,PAYLOAD,2023-01-20 00:53:19,15.08837913,0.0001564,53.2108,252.6805,94.7312,265.3858,0.00029882,4.471e-05,0.0,0 STARLINK-4067,1 52668U 22053N   23020.03703294  .00004471  00000-0  29882-3 0  9992,2 52668  53.2108 252.6805 0001564  94.7312 265.3858 15.08837913 38247,6917.887,95.438,540.8340000000001,538.67,0.0
52668.0,STARLINK-4067,PAYLOAD,2023-01-21 00:44:07,15.08843147,0.0001525,53.2116,248.2191,92.2979,267.8188,0.00052909,8.143e-05,0.0,0 STARLINK-4067,1 52668U 22053N   23021.03063714  .00008143  00000-0  52909-3 0  9995,2 52668  53.2116 248.2191 0001525  92.2979 267.8188 15.08843147 38399,6917.871,95.437,540.7909999999999,538.681,0.0
52668.0,STARLINK-4067,PAYLOAD,2023-01-21 21:24:07,15.08850624,0.0001458,53.2113,244.3528,91.2771,268.8388,0.00039366,5.984e-05,0.0,0 STARLINK-4067,1 52668U 22053N   23021.89175358  .00005984  00000-0  39366-3 0  9999,2 52668  53.2113 244.3528 0001458  91.2771 268.8388 15.08850624 38527,6917.848000000001,95.437,540.722,538.7040000000001,0.0
52668.0,STARLINK-4067,PAYLOAD,2023-01-23 00:25:40,15.08841316,0.0001304,53.2127,239.2972,85.1639,274.9502,2.2803e-05,7.5e-07,0.0,0 STARLINK-4067,1 52668U 22053N   23023.01783518  .00000075  00000-0  22803-4 0  9993,2 52668  53.2127 239.2972 0001304  85.1639 274.9502 15.08841316 38695,6917.876,95.437,540.643,538.839,0.0
52668.0,STARLINK-4067,PAYLOAD,2023-01-24 09:48:46,15.08837918,0.0001219,53.2137,233.0513,84.196,275.9171,0.00010425,1.372e-05,0.0,0 STARLINK-4067,1 52668U 22053N   23024.40887633  .00001372  00000-0  10425-3 0  9997,2 52668  53.2137 233.0513 0001219  84.1960 275.9171 15.08837918 38900,6917.887,95.438,540.595,538.908,0.0
52668.0,STARLINK-4067,PAYLOAD,2023-01-25 08:04:10,15.08837081,0.0001197,53.2134,228.8875,85.2537,274.8592,6.5929e-05,7.61e-06,0.0,0 STARLINK-4067,1 52668U 22053N   23025.33623764  .00000761  00000-0  65929-4 0  9994,2 52668  53.2134 228.8875 0001197  85.2537 274.8592 15.08837081 39049,6917.889,95.438,540.582,538.9259999999999,0.0
52668.0,STARLINK-4067,PAYLOAD,2023-01-25 19:11:52,15.08840937,0.0001142,53.2135,226.8059,89.1257,270.9865,-6.469299999999999e-06,-3.91e-06,0.0,0 STARLINK-4067,1 52668U 22053N   23025.79991717 -.00000391  00000-0 -64693-5 0  9999,2 52668  53.2135 226.8059 0001142  89.1257 270.9865 15.08840937 39116,6917.878000000001,95.437,540.533,538.953,0.0
52668.0,STARLINK-4067,PAYLOAD,2023-01-26 06:19:34,15.08841604,0.0001100999999999,53.2136,224.7241,93.2231,266.8887,3.8618e-05,3.27e-06,0.0,0 STARLINK-4067,1 52668U 22053N   23026.26359448  .00000327  00000-0  38618-4 0  9995,2 52668  53.2136 224.7241 0001101  93.2231 266.8887 15.08841604 39187,6917.875,95.437,540.502,538.979,0.0
52668.0,STARLINK-4067,PAYLOAD,2023-01-26 20:38:02,15.08841565,0.0001095999999999,53.2136,222.0476,93.3427,266.769,7.0696e-05,8.38e-06,0.0,0 STARLINK-4067,1 52668U 22053N   23026.85975345  .00000838  00000-0  70696-4 0  9999,2 52668  53.2136 222.0476 0001096  93.3427 266.7690 15.08841565 39276,6917.876,95.437,540.499,538.982,0.0
52668.0,STARLINK-4067,PAYLOAD,2023-01-27 12:31:54,15.08837018,0.000111,53.2135,219.0743,91.512,268.5999,4.6711e-05,4.56e-06,0.0,0 STARLINK-4067,1 52668U 22053N   23027.52215689  .00000456  00000-0  46711-4 0  9999,2 52668  53.2135 219.0743 0001110  91.5120 268.5999 15.08837018 39376,6917.89,95.438,540.5219999999999,538.987,0.0
52668.0,STARLINK-4067,PAYLOAD,2023-01-27 18:53:26,15.088387099999998,0.0001088999999999,53.2134,217.8847,91.7774,268.3342,6.0892e-05,6.81e-06,0.0,0 STARLINK-4067,1 52668U 22053N   23027.78711554  .00000681  00000-0  60892-4 0  9995,2 52668  53.2134 217.8847 0001089  91.7774 268.3342 15.08838710 39413,6917.884,95.438,540.503,538.996,0.0
52668.0,STARLINK-4067,PAYLOAD,2023-01-27 23:39:35,15.08842102,0.00011,53.2135,216.9923,91.8812,268.2306,6.002e-05,6.68e-06,0.0,0 STARLINK-4067,1 52668U 22053N   23027.98583326  .00000668  00000-0  60020-4 0  9999,2 52668  53.2135 216.9923 0001100  91.8812 268.2306 15.08842102 39449,6917.874,95.437,540.5,538.9780000000001,0.0
52668.0,STARLINK-4067,PAYLOAD,2023-01-28 12:22:41,15.08836694,0.0001148,53.2136,214.6126,91.4598,268.6525,8.4525e-06,-1.53e-06,0.0,0 STARLINK-4067,1 52668U 22053N   23028.51575839 -.00000153  00000-0  84525-5 0  9996,2 52668  53.2136 214.6126 0001148  91.4598 268.6525 15.08836694 39524,6917.89,95.438,540.55,538.961,0.0
52668.0,STARLINK-4067,PAYLOAD,2023-01-28 18:44:13,15.08838049,0.0001168,53.2135,213.4233,88.8861,271.2265,1.4303e-05,-6e-07,0.0,0 STARLINK-4067,1 52668U 22053N   23028.78071753 -.00000060  00000-0  14303-4 0  9994,2 52668  53.2135 213.4233 0001168  88.8861 271.2265 15.08838049 39565,6917.886,95.438,540.559,538.943,0.0
52668.0,STARLINK-4067,PAYLOAD,2023-01-29 16:59:37,15.08837178,0.0001188,53.2134,209.2607,81.7693,278.3434,4.5129e-05,4.3e-06,0.0,0 STARLINK-4067,1 52668U 22053N   23029.70807750  .00000430  00000-0  45129-4 0  9991,2 52668  53.2134 209.2607 0001188  81.7693 278.3434 15.08837178 39703,6917.889,95.438,540.576,538.932,0.0
52668.0,STARLINK-4067,PAYLOAD,2023-01-29 18:35:00,15.08840725,0.0001171,53.2137,208.9632,80.4313,279.6811,2.8907e-05,1.72e-06,0.0,0 STARLINK-4067,1 52668U 22053N   23029.77431579  .00000172  00000-0  28907-4 0  9998,2 52668  53.2137 208.9632 0001171  80.4313 279.6811 15.08840725 39713,6917.878,95.438,540.553,538.933,0.0
52668.0,STARLINK-4067,PAYLOAD,2023-01-31 03:58:06,15.08838617,0.0001189,53.2139,202.7178,79.6685,280.4442,1.4803e-05,-5.2e-07,0.0,0 STARLINK-4067,1 52668U 22053N   23031.16535877 -.00000052  00000-0  14803-4 0  9998,2 52668  53.2139 202.7178 0001189  79.6685 280.4442 15.08838617 39923,6917.885,95.438,540.572,538.927,0.0
52668.0,STARLINK-4067,PAYLOAD,2023-01-31 13:30:26,15.08835463,0.0001183,53.2139,200.9332,84.7392,275.3735,-7.015e-06,-3.99e-06,0.0,0 STARLINK-4067,1 52668U 22053N   23031.56280234 -.00000399  00000-0 -70150-5 0  9999,2 52668  53.2139 200.9332 0001183  84.7392 275.3735 15.08835463 39981,6917.894,95.438,540.578,538.941,0.0
52668.0,STARLINK-4067,PAYLOAD,2023-02-01 11:45:50,15.08835456,0.0001263,53.2132,196.7697,98.4032,261.7103,1.5985e-05,-3.3e-07,0.0,0 STARLINK-4067,1 52668U 22053N   23032.49016257 -.00000033  00000-0  15985-4 0  9992,2 52668  53.2132 196.7697 0001263  98.4032 261.7103 15.08835456 40120,6917.894,95.438,540.633,538.886,0.0
52668.0,STARLINK-4067,PAYLOAD,2023-02-02 13:12:00,15.08837239,0.0001185,53.2139,192.0119,91.6524,268.4604,6.1844e-05,6.96e-06,0.0,0 STARLINK-4067,1 52668U 22053N   23033.55000339  .00000696  00000-0  61844-4 0  9993,2 52668  53.2139 192.0119 0001185  91.6524 268.4604 15.08837239 40287,6917.889,95.438,540.574,538.934,0.0
52668.0,STARLINK-4067,PAYLOAD,2023-02-02 19:33:32,15.0884385,0.0001129,53.2139,190.8224,91.5206,268.5915,7.4583e-05,8.99e-06,0.0,0 STARLINK-4067,1 52668U 22053N   23033.81495869  .00000899  00000-0  74583-4 0  9997,2 52668  53.2139 190.8224 0001129  91.5206 268.5915 15.08843850 40321,6917.869,95.437,540.515,538.953,0.0
52668.0,STARLINK-4067,PAYLOAD,2023-02-03 03:30:28,15.08829792,0.0001268,53.2134,189.334,84.7025,275.4112,6.8634e-05,8.04e-06,0.0,0 STARLINK-4067,1 52668U 22053N   23034.14616768  .00000804  00000-0  68634-4 0  9993,2 52668  53.2134 189.3340 0001268  84.7025 275.4112 15.08829792 40375,6917.912,95.438,540.654,538.899,0.0
52668.0,STARLINK-4067,PAYLOAD,2023-02-03 09:52:01,15.0883427,0.0001272,53.2135,188.1457,85.0459,275.0679,3.4726e-05,2.65e-06,0.0,0 STARLINK-4067,1 52668U 22053N   23034.41112750  .00000265  00000-0  34726-4 0  9991,2 52668  53.2135 188.1457 0001272  85.0459 275.0679 15.08834270 40418,6917.898,95.438,540.643,538.883,0.0
52668.0,STARLINK-4067,PAYLOAD,2023-02-03 19:24:20,15.08835847,0.0001399,53.2133,186.3613,86.1753,273.9399,5.8088e-05,6.37e-06,0.0,0 STARLINK-4067,1 52668U 22053N   23034.80856691  .00000637  00000-0  58088-4 0  9993,2 52668  53.2133 186.3613 0001399  86.1753 273.9399 15.08835847 40472,6917.893,95.438,540.726,538.79,0.0
52668.0,STARLINK-4067,PAYLOAD,2023-02-04 14:28:57,15.08838783,0.0001238,53.2134,182.7948,80.9369,279.1763,0.0001128,1.508e-05,0.0,0 STARLINK-4067,1 52668U 22053N   23035.60344352  .00001508  00000-0  11280-3 0  9998,2 52668  53.2134 182.7948 0001238  80.9369 279.1763 15.08838783 40599,6917.884,95.438,540.606,538.893,0.0
